[{"OBJECT_NAME":"STARLINK-1522","OBJECT_ID":"2020-055A","EPOCH":"2026-03-09T11:35:29.480640","MEAN_MOTION":15.09084623,"ECCENTRICITY":0.00016695,"INCLINATION":53.063,"RA_OF_ASC_NODE":127.4122,"ARG_OF_PERICENTER":68.2219,"MEAN_ANOMALY":291.8949,"EPHEMERIS_TYPE":0,"CLASSIFICATION_TYPE":"U","NORAD_CAT_ID":46027,"ELEMENT_SET_NO":999,"REV_AT_EPOCH":30885,"BSTAR":0.00075896096,"MEAN_MOTION_DOT":0.00011893,"MEAN_MOTION_DDOT":0},{"OBJECT_NAME":"COSMOS 2084","OBJECT_ID":"1990-055A","EPOCH":"2026-03-09T23:42:10.320480","MEAN_MOTION":15.05654003,"ECCENTRICITY":0.00170188,"INCLINATION":62.7921,"RA_OF_ASC_NODE":334.5624,"ARG_OF_PERICENTER":190.1371,"MEAN_ANOMALY":169.9389,"EPHEMERIS_TYPE":0,"CLASSIFICATION_TYPE":"U","NORAD_CAT_ID":20663,"ELEMENT_SET_NO":999,"REV_AT_EPOCH":93636,"BSTAR":0.00023056361,"MEAN_MOTION_DOT":3.154e-5,"MEAN_MOTION_DDOT":0}]
